NORAD_CAT_ID,OBJECT_NAME,OBJECT_TYPE,EPOCH,MEAN_MOTION,ECCENTRICITY,INCLINATION,RA_OF_ASC_NODE,ARG_OF_PERICENTER,MEAN_ANOMALY,BSTAR,MEAN_MOTION_DOT,MEAN_MOTION_DDOT,TLE_LINE0,TLE_LINE1,TLE_LINE2,SEMIMAJOR_AXIS,PERIOD,APOGEE,PERIGEE,DECAYED
52113.0,STARLINK-3736,PAYLOAD,2022-12-24 13:11:36,15.08849046,0.0002055,53.2177,296.5735,49.5708,310.5463,7.967199999999999e-05,9.8e-06,0.0,0 STARLINK-3736,1 52113U 22029AB  22358.54973330  .00000980  00000-0  79672-4 0  9993,2 52113  53.2177 296.5735 0002055  49.5708 310.5463 15.08849046 43982,6917.853,95.437,541.139,538.2959999999998,0.0
52113.0,STARLINK-3736,PAYLOAD,2022-12-25 01:54:42,15.08839413,0.0002219,53.2187,294.1946,50.581,309.5379,-7.5598e-05,-1.491e-05,0.0,0 STARLINK-3736,1 52113U 22029AB  22359.07965698 -.00001491  00000-0 -75598-4 0  9993,2 52113  53.2187 294.1946 0002219  50.5810 309.5379 15.08839413 44060,6917.882,95.438,541.2819999999998,538.212,0.0
52113.0,STARLINK-3736,PAYLOAD,2022-12-25 05:05:28,15.08839096,0.0002222,53.2183,293.5996,45.334,314.7833,2.1975e-05,6.1e-07,0.0,0 STARLINK-3736,1 52113U 22029AB  22359.21213879  .00000061  00000-0  21975-4 0  9996,2 52113  53.2183 293.5996 0002222  45.3340 314.7833 15.08839096 44080,6917.8830000000025,95.438,541.285,538.211,0.0
52113.0,STARLINK-3736,PAYLOAD,2022-12-25 13:02:24,15.08845577,0.0002168,53.2182,292.1131,48.7833,311.3346,5.1899e-05,5.38e-06,0.0,0 STARLINK-3736,1 52113U 22029AB  22359.54333436  .00000538  00000-0  51899-4 0  9991,2 52113  53.2182 292.1131 0002168  48.7833 311.3346 15.08845577 44137,6917.863,95.437,541.2280000000002,538.229,0.0
52113.0,STARLINK-3736,PAYLOAD,2022-12-26 04:56:16,15.08840574,0.0001906,53.2183,289.1386,50.3811,309.7349,-2.6609e-05,-7.12e-06,0.0,0 STARLINK-3736,1 52113U 22029AB  22360.20574075 -.00000712  00000-0 -26609-4 0  9999,2 52113  53.2183 289.1386 0001906  50.3811 309.7349 15.08840574 44237,6917.879,95.438,541.062,538.425,0.0
52113.0,STARLINK-3736,PAYLOAD,2022-12-26 12:53:11,15.08836795,0.0001967,53.219,287.652,47.4298,312.686,-5.7607e-05,-1.205e-05,0.0,0 STARLINK-3736,1 52113U 22029AB  22360.53694433 -.00001205  00000-0 -57607-4 0  9996,2 52113  53.2190 287.6520 0001967  47.4298 312.6860 15.08836795 44287,6917.89,95.438,541.116,538.394,0.0
52113.0,STARLINK-3736,PAYLOAD,2022-12-26 19:14:44,15.08834146,0.0001923,53.2184,286.4621,49.3824,310.7336,8.8005e-05,1.113e-05,0.0,0 STARLINK-3736,1 52113U 22029AB  22360.80190452  .00001113  00000-0  88005-4 0  9990,2 52113  53.2184 286.4621 0001923  49.3824 310.7336 15.08834146 44327,6917.898,95.438,541.094,538.433,0.0
52113.0,STARLINK-3736,PAYLOAD,2022-12-27 04:47:02,15.08849666,0.0002059,53.2177,284.6799,45.4313,314.6847,0.00019113,2.756e-05,0.0,0 STARLINK-3736,1 52113U 22029AB  22361.19933274  .00002756  00000-0  19113-3 0  9997,2 52113  53.2177 284.6799 0002059  45.4313 314.6847 15.08849666 44385,6917.851,95.437,541.14,538.2909999999998,0.0
52113.0,STARLINK-3736,PAYLOAD,2022-12-28 04:37:48,15.08869267,0.0002143,53.2165,280.2187,49.2758,310.842,0.00039953,6.081e-05,0.0,0 STARLINK-3736,1 52113U 22029AB  22362.19291872  .00006081  00000-0  39953-3 0  9998,2 52113  53.2165 280.2187 0002143  49.2758 310.8420 15.08869267 44535,6917.791,95.436,541.138,538.173,0.0
52113.0,STARLINK-3736,PAYLOAD,2022-12-28 15:45:30,15.08842302,0.0002156,53.2152,278.1397,41.1382,318.9772,-0.00016344,-2.889e-05,0.0,0 STARLINK-3736,1 52113U 22029AB  22362.65660253 -.00002889  00000-0 -16344-3 0  9995,2 52113  53.2152 278.1397 0002156  41.1382 318.9772 15.08842302 44606,6917.873000000001,95.437,541.23,538.247,0.0
52113.0,STARLINK-3736,PAYLOAD,2022-12-29 01:17:50,15.08832027,0.0001943,53.2189,276.3543,43.4514,316.6631,-0.00035421,-5.920000000000001e-05,0.0,0 STARLINK-3736,1 52113U 22029AB  22363.05405094 -.00005920  00000-0 -35421-3 0  9996,2 52113  53.2189 276.3543 0001943  43.4514 316.6631 15.08832027 44662,6917.905,95.438,541.114,538.4259999999998,0.0
52113.0,STARLINK-3736,PAYLOAD,2022-12-29 10:50:09,15.0882533,0.0001911999999999,53.2179,274.5695,41.9387,318.1751,-0.00038457,-6.401e-05,0.0,0 STARLINK-3736,1 52113U 22029AB  22363.45149533 -.00006401  00000-0 -38457-3 0  9990,2 52113  53.2179 274.5695 0001912  41.9387 318.1751 15.08825330 44722,6917.925,95.438,541.113,538.4680000000002,0.0
52113.0,STARLINK-3736,PAYLOAD,2022-12-30 02:44:00,15.08840052,0.000185,53.2171,271.5961,50.5422,309.5733,-0.00010258,-1.92e-05,0.0,0 STARLINK-3736,1 52113U 22029AB  22364.11389493 -.00001920  00000-0 -10258-3 0  9995,2 52113  53.2171 271.5961 0001850  50.5422 309.5733 15.08840052 44827,6917.88,95.438,541.025,538.465,0.0
52113.0,STARLINK-3736,PAYLOAD,2022-12-30 04:19:23,15.08842106,0.0001858,53.2168,271.2984,49.9176,310.1979,-6.0415e-05,-1.25e-05,0.0,0 STARLINK-3736,1 52113U 22029AB  22364.18013423 -.00001250  00000-0 -60415-4 0  9996,2 52113  53.2168 271.2984 0001858  49.9176 310.1979 15.08842106 44834,6917.874,95.437,541.024,538.4540000000002,0.0
52113.0,STARLINK-3736,PAYLOAD,2022-12-30 18:37:51,15.08852688,0.000197,53.2164,268.6223,44.6977,315.4174,0.00055982,8.636e-05,0.0,0 STARLINK-3736,1 52113U 22029AB  22364.77629154  .00008636  00000-0  55982-3 0  9990,2 52113  53.2164 268.6223 0001970  44.6977 315.4174 15.08852688 44923,6917.842,95.437,541.069,538.344,0.0
52113.0,STARLINK-3736,PAYLOAD,2022-12-31 10:31:42,15.0886855,0.0002025,53.2164,265.6483,46.1325,313.9835,0.00059523,9.205e-05,0.0,0 STARLINK-3736,1 52113U 22029AB  22365.43868282  .00009205  00000-0  59523-3 0  9999,2 52113  53.2164 265.6483 0002025  46.1325 313.9835 15.08868550 45028,6917.793000000002,95.436,541.059,538.257,0.0
52113.0,STARLINK-3736,PAYLOAD,2022-12-31 18:28:37,15.08856641,0.0001857,53.2172,264.1617,46.6541,313.4605,0.0001173,1.58e-05,0.0,0 STARLINK-3736,1 52113U 22029AB  22365.76988109  .00001580  00000-0  11730-3 0  9992,2 52113  53.2172 264.1617 0001857  46.6541 313.4605 15.08856641 45070,6917.83,95.437,540.979,538.41,0.0
52113.0,STARLINK-3736,PAYLOAD,2023-01-01 02:25:33,15.08846938,0.0001595,53.2163,262.6738,38.5984,321.5122,-0.000328,-5.505e-05,0.0,0 STARLINK-3736,1 52113U 22029AB  23001.10107882 -.00005505  00000-0 -32800-3 0  9993,2 52113  53.2163 262.6738 0001595  38.5984 321.5122 15.08846938 45125,6917.859,95.437,540.828,538.621,0.0
52113.0,STARLINK-3736,PAYLOAD,2023-01-01 10:22:29,15.08829495,0.0001902,53.2164,261.1889,40.4635,319.6498,-0.00044359,-7.339e-05,0.0,0 STARLINK-3736,1 52113U 22029AB  23001.43228820 -.00007339  00000-0 -44359-3 0  9994,2 52113  53.2164 261.1889 0001902  40.4635 319.6498 15.08829495 45172,6917.9119999999975,95.438,541.0930000000002,538.462,0.0
52113.0,STARLINK-3736,PAYLOAD,2023-01-01 16:44:02,15.08825404,0.0002161,53.2177,260.0013,41.1986,318.9169,-0.0003703,-6.175e-05,0.0,0 STARLINK-3736,1 52113U 22029AB  23001.69725488 -.00006175  00000-0 -37030-3 0  9999,2 52113  53.2177 260.0013 0002161  41.1986 318.9169 15.08825404 45216,6917.925,95.438,541.285,538.295,0.0
52113.0,STARLINK-3736,PAYLOAD,2023-01-02 10:13:18,15.08829842,0.0002008,53.2165,256.728,43.4671,316.6479,-1.9606e-05,-6e-06,0.0,0 STARLINK-3736,1 52113U 22029AB  23002.42590365 -.00000600  00000-0 -19606-4 0  9992,2 52113  53.2165 256.7280 0002008  43.4671 316.6479 15.08829842 45328,6917.911,95.438,541.1659999999998,538.387,0.0
52113.0,STARLINK-3736,PAYLOAD,2023-01-03 02:07:09,15.08834664,0.0002021999999999,53.2165,253.7544,41.9992,318.1155,0.00026425,3.919e-05,0.0,0 STARLINK-3736,1 52113U 22029AB  23003.08830649  .00003919  00000-0  26425-3 0  9997,2 52113  53.2165 253.7544 0002022  41.9992 318.1155 15.08834664 45420,6917.897,95.438,541.16,538.363,0.0
52113.0,STARLINK-3736,PAYLOAD,2023-01-03 10:04:05,15.08837676,0.0001965,53.2168,252.2672,43.8486,316.2662,0.00033217,5.002e-05,0.0,0 STARLINK-3736,1 52113U 22029AB  23003.41950799  .00005002  00000-0  33217-3 0  9995,2 52113  53.2168 252.2672 0001965  43.8486 316.2662 15.08837676 45476,6917.887,95.438,541.112,538.393,0.0
52113.0,STARLINK-3736,PAYLOAD,2023-01-04 01:57:57,15.08834063,0.0002038,53.2166,249.2934,44.8435,315.2722,0.00016963,2.412e-05,0.0,0 STARLINK-3736,1 52113U 22029AB  23004.08191381  .00002412  00000-0  16963-3 0  9994,2 52113  53.2166 249.2934 0002038  44.8435 315.2722 15.08834063 45572,6917.899,95.438,541.173,538.354,0.0
52113.0,STARLINK-3736,PAYLOAD,2023-01-04 03:33:20,15.08839036,0.0002093,53.2165,248.9965,44.3287,315.7872,0.00028053,4.179e-05,0.0,0 STARLINK-3736,1 52113U 22029AB  23004.14815349  .00004179  00000-0  28053-3 0  9993,2 52113  53.2165 248.9965 0002093  44.3287 315.7872 15.08839036 45589,6917.8830000000025,95.438,541.196,538.3,0.0
52113.0,STARLINK-3736,PAYLOAD,2023-01-05 01:48:43,15.08866171,0.0002095,53.2163,244.8333,46.137,313.9795,0.0010613,0.00016655,0.0,0 STARLINK-3736,1 52113U 22029AB  23005.07550346  .00016655  00000-0  10613-2 0  9993,2 52113  53.2163 244.8333 0002095  46.1370 313.9795 15.08866171 45726,6917.8,95.436,541.115,538.216,0.0
52113.0,STARLINK-3736,PAYLOAD,2023-01-05 03:24:06,15.08868123,0.0002177999999999,53.2163,244.5361,45.9262,314.1909,0.0010113,0.00015856,0.0,0 STARLINK-3736,1 52113U 22029AB  23005.14174208  .00015856  00000-0  10113-2 0  9997,2 52113  53.2163 244.5361 0002178  45.9262 314.1909 15.08868123 45733,6917.794,95.436,541.1659999999998,538.153,0.0
52113.0,STARLINK-3736,PAYLOAD,2023-01-05 17:42:33,15.0886754,0.000175,53.2159,241.8591,53.4834,306.6319,0.00046801,7.174e-05,0.0,0 STARLINK-3736,1 52113U 22029AB  23005.73789329  .00007174  00000-0  46801-3 0  9996,2 52113  53.2159 241.8591 0001750  53.4834 306.6319 15.08867540 45820,6917.795999999999,95.436,540.872,538.451,0.0
52113.0,STARLINK-3736,PAYLOAD,2023-01-06 08:01:02,15.08834604,0.0002106,53.2159,239.1833,45.7014,314.4151,-0.0003736,-6.228e-05,0.0,0 STARLINK-3736,1 52113U 22029AB  23006.33405967 -.00006228  00000-0 -37360-3 0  9997,2 52113  53.2159 239.1833 0002106  45.7014 314.4151 15.08834604 45915,6917.897,95.438,541.219,538.305,0.0
